NORAD_CAT_ID,OBJECT_NAME,OBJECT_TYPE,EPOCH,MEAN_MOTION,ECCENTRICITY,INCLINATION,RA_OF_ASC_NODE,ARG_OF_PERICENTER,MEAN_ANOMALY,BSTAR,MEAN_MOTION_DOT,MEAN_MOTION_DDOT,TLE_LINE0,TLE_LINE1,TLE_LINE2,SEMIMAJOR_AXIS,PERIOD,APOGEE,PERIGEE,DECAYED
52106.0,STARLINK-3670,PAYLOAD,2022-06-28 14:00:01,15.088185,0.0001257,53.2187,29.9705,77.6945,125.021,0.0012138,0.00019071,0.0,0 STARLINK-3670,1 52106U 22029U   22179.58334491  .00019071  00000-0  12138-2 0  9992,2 52106  53.2187  29.9705 0001257  77.6945 125.0210 15.08818500  1308,6917.946,95.439,540.681,538.942,0.0
52106.0,STARLINK-3670,PAYLOAD,2022-06-28 22:00:00,15.08818509,0.0001338,53.2184,28.4759,66.8833,147.4126,0.00069273,0.00010748,0.0,0 STARLINK-3670,1 52106U 22029U   22179.91667824  .00010748  00000-0  69273-3 0  9993,2 52106  53.2184  28.4759 0001338  66.8833 147.4126 15.08818509  1307,6917.946,95.439,540.737,538.885,0.0
52106.0,STARLINK-3670,PAYLOAD,2022-06-29 06:00:00,15.08845418,0.0001238,53.2181,26.9785,70.5585,155.3078,-0.0019999,-0.0003198,0.0,0 STARLINK-3670,1 52106U 22029U   22180.25001157 -.00031980  00000-0 -19999-2 0  9995,2 52106  53.2181  26.9785 0001238  70.5585 155.3078 15.08845418 16928,6917.864000000001,95.437,540.585,538.872,0.0
52106.0,STARLINK-3670,PAYLOAD,2022-06-29 14:00:01,15.08834063,0.0001245,53.2183,25.4816,79.8569,157.592,0.00078867,0.00012284,0.0,0 STARLINK-3670,1 52106U 22029U   22180.58334491  .00012284  00000-0  78867-3 0  9995,2 52106  53.2183  25.4816 0001245  79.8569 157.5920 15.08834063  1301,6917.899,95.438,540.625,538.9019999999998,0.0
52106.0,STARLINK-3670,PAYLOAD,2022-06-29 22:00:00,15.08825767,0.0001332,53.218,23.987,68.5612,180.4835,0.0010803,0.0001694,0.0,0 STARLINK-3670,1 52106U 22029U   22180.91667824  .00016940  00000-0  10803-2 0  9999,2 52106  53.2180  23.9870 0001332  68.5612 180.4835 15.08825767 17029,6917.924,95.438,540.71,538.867,0.0
52106.0,STARLINK-3670,PAYLOAD,2022-06-30 14:00:01,15.08847299,0.000126,53.2178,20.9925,81.1049,191.117,0.00039716,6.04e-05,0.0,0 STARLINK-3670,1 52106U 22029U   22181.58334491  .00006040  00000-0  39716-3 0  9999,2 52106  53.2178  20.9925 0001260  81.1049 191.1170 15.08847299  1308,6917.858,95.437,540.595,538.851,0.0
52106.0,STARLINK-3670,PAYLOAD,2022-06-30 22:00:00,15.08833119,0.0001341,53.2177,19.4979,69.4315,214.4008,0.0015331,0.00024191,0.0,0 STARLINK-3670,1 52106U 22029U   22181.91667824  .00024191  00000-0  15331-2 0  9998,2 52106  53.2177  19.4979 0001341  69.4315 214.4008 15.08833119  1309,6917.901,95.438,540.694,538.839,0.0
52106.0,STARLINK-3670,PAYLOAD,2022-07-01 14:00:01,15.08859033,0.0001289,53.2176,16.5033,80.5552,226.4729,7.5817e-05,9.2e-06,0.0,0 STARLINK-3670,1 52106U 22029U   22182.58334491  .00000920  00000-0  75817-4 0  9994,2 52106  53.2176  16.5033 0001289  80.5552 226.4729 15.08859033  1301,6917.821999999999,95.436,540.5790000000002,538.7959999999998,0.0
52106.0,STARLINK-3670,PAYLOAD,2022-07-01 22:00:00,15.08840837,0.0001393,53.2176,15.0086,69.5338,249.1147,0.0015489,0.00024449,0.0,0 STARLINK-3670,1 52106U 22029U   22182.91667824  .00024449  00000-0  15489-2 0  9999,2 52106  53.2176  15.0086 0001393  69.5338 249.1147 15.08840837 17325,6917.878000000002,95.438,540.706,538.779,0.0
52106.0,STARLINK-3670,PAYLOAD,2022-07-02 14:00:01,15.08847538,0.0001434,53.2178,12.014,79.4293,262.4263,-0.00015942,-2.825e-05,0.0,0 STARLINK-3670,1 52106U 22029U   22183.58334491 -.00002825  00000-0 -15942-3 0  9995,2 52106  53.2178  12.0140 0001434  79.4293 262.4263 15.08847538 17424,6917.857,95.437,540.714,538.73,0.0
52106.0,STARLINK-3670,PAYLOAD,2022-07-02 22:00:00,15.08827887,0.0001516,53.2179,10.5194,69.4622,284.0047,0.0025156,0.00039962,0.0,0 STARLINK-3670,1 52106U 22029U   22183.91667824  .00039962  00000-0  25156-2 0  9998,2 52106  53.2179  10.5194 0001516  69.4622 284.0047 15.08827887  1308,6917.917,95.438,540.831,538.734,0.0
52106.0,STARLINK-3670,PAYLOAD,2022-07-03 14:00:01,15.08871147,0.0001518,53.2184,7.5249,77.7856,298.8982,-0.0025681,-0.00040962,0.0,0 STARLINK-3670,1 52106U 22029U   22184.58334491 -.00040962  00000-0 -25681-2 0  9990,2 52106  53.2184   7.5249 0001518  77.7856 298.8982 15.08871147 17580,6917.785,95.436,540.7,538.6,0.0
52106.0,STARLINK-3670,PAYLOAD,2022-07-03 22:00:00,15.08819357,0.000158,53.2184,6.0302,69.3627,318.9356,0.00028139,4.191e-05,0.0,0 STARLINK-3670,1 52106U 22029U   22184.91667824  .00004191  00000-0  28139-3 0  9990,2 52106  53.2184   6.0302 0001580  69.3627 318.9356 15.08819357  1303,6917.943,95.439,540.9019999999998,538.715,0.0
52106.0,STARLINK-3670,PAYLOAD,2022-07-04 14:00:01,15.08837234,0.0001481,53.2189,3.0362,76.9677,334.4644,-0.00089797,-0.0001455,0.0,0 STARLINK-3670,1 52106U 22029U   22185.58334491 -.00014550  00000-0 -89797-3 0  9994,2 52106  53.2189   3.0362 0001481  76.9677 334.4644 15.08837234 17731,6917.889,95.438,540.778,538.729,0.0
52106.0,STARLINK-3670,PAYLOAD,2022-07-04 22:00:00,15.08808799,0.0001528,53.2188,1.5414,68.332,354.6936,0.003065,0.00048788,0.0,0 STARLINK-3670,1 52106U 22029U   22185.91667824  .00048788  00000-0  30650-2 0  9991,2 52106  53.2188   1.5414 0001528  68.3320 354.6936 15.08808799  1301,6917.976,95.44,540.898,538.784,0.0
52106.0,STARLINK-3670,PAYLOAD,2022-07-05 06:00:00,15.08832302,0.0001415,53.219,0.0434,75.6733,358.9359,0.00065776,0.00010194,0.0,0 STARLINK-3670,1 52106U 22029U   22186.25001157  .00010194  00000-0  65776-3 0  9998,2 52106  53.2190   0.0434 0001415  75.6733 358.9359 15.08832302 17832,6917.904,95.438,540.748,538.79,0.0
52106.0,STARLINK-3670,PAYLOAD,2022-07-05 14:00:01,15.08859966,0.0001443,53.2192,358.5475,77.0473,9.1456,-0.0011305999999999,-0.00018246,0.0,0 STARLINK-3670,1 52106U 22029U   22186.58334491 -.00018246  00000-0 -11306-2 0  9991,2 52106  53.2192 358.5475 0001443  77.0473   9.1456 15.08859966  1301,6917.819,95.436,540.683,538.686,0.0
52106.0,STARLINK-3670,PAYLOAD,2022-07-05 22:00:00,15.0883375,0.0001425,53.2188,357.0526,67.6178,30.1887,6.537100000000001e-05,7.52e-06,0.0,0 STARLINK-3670,1 52106U 22029U   22186.91667824  .00000752  00000-0  65371-4 0  9991,2 52106  53.2188 357.0526 0001425  67.6178  30.1887 15.08833750  1309,6917.899,95.438,540.75,538.779,0.0
52106.0,STARLINK-3670,PAYLOAD,2022-07-06 06:00:00,15.08813849,0.0001248,53.2189,355.5546,76.1956,33.2037,0.0010462,0.0001639,0.0,0 STARLINK-3670,1 52106U 22029U   22187.25001157  .00016390  00000-0  10462-2 0  9994,2 52106  53.2189 355.5546 0001248  76.1956  33.2037 15.08813849 17986,6917.96,95.439,540.689,538.962,0.0
52106.0,STARLINK-3670,PAYLOAD,2022-07-06 14:00:01,15.08845636,0.00013,53.219,354.0588,77.1212,43.8436,-0.0014903,-0.00023931,0.0,0 STARLINK-3670,1 52106U 22029U   22187.58334491 -.00023931  00000-0 -14903-2 0  9995,2 52106  53.2190 354.0588 0001300  77.1212  43.8436 15.08845636  1301,6917.863,95.437,540.627,538.8290000000002,0.0
52106.0,STARLINK-3670,PAYLOAD,2022-07-06 22:00:00,15.08811063,0.0001324,53.2185,352.5638,67.3392,65.222,0.0030025,0.00047783,0.0,0 STARLINK-3670,1 52106U 22029U   22187.91667824  .00047783  00000-0  30025-2 0  9993,2 52106  53.2185 352.5638 0001324  67.3392  65.2220 15.08811063  1306,6917.969,95.439,540.75,538.918,0.0
52106.0,STARLINK-3670,PAYLOAD,2022-07-07 14:00:01,15.08858884,0.0001281,53.2185,349.5702,78.0756,77.6545,-0.0016119,-0.00025863,0.0,0 STARLINK-3670,1 52106U 22029U   22188.58334491 -.00025863  00000-0 -16119-2 0  9993,2 52106  53.2185 349.5702 0001281  78.0756  77.6545 15.08858884  1308,6917.823,95.436,540.5740000000002,538.8009999999998,0.0
52106.0,STARLINK-3670,PAYLOAD,2022-07-07 22:00:00,15.08826861,0.0001330999999999,53.2178,348.0753,68.0945,99.246,0.00275,0.00043734,0.0,0 STARLINK-3670,1 52106U 22029U   22188.91667824  .00043734  00000-0  27500-2 0  9990,2 52106  53.2178 348.0753 0001331  68.0945  99.2460 15.08826861 18231,6917.920999999999,95.438,540.706,538.865,0.0
52106.0,STARLINK-3670,PAYLOAD,2022-07-08 08:00:01,15.08817226,0.000132,53.2175,346.20300000000015,81.5649,190.2884,0.0015798,0.00024928,0.0,0 STARLINK-3670,1 52106U 22029U   22189.33334491  .00024928  00000-0  15798-2 0  9998,2 52106  53.2175 346.2030 0001320  81.5649 190.2884 15.08817226 18298,6917.95,95.439,540.7280000000002,538.9019999999998,0.0
52106.0,STARLINK-3670,PAYLOAD,2022-07-08 14:00:01,15.08865098,0.0001382,53.2178,345.0812,77.3962,113.1698,-0.00076205,-0.00012404,0.0,0 STARLINK-3670,1 52106U 22029U   22189.58334491 -.00012404  00000-0 -76205-3 0  9994,2 52106  53.2178 345.0812 0001382  77.3962 113.1698 15.08865098 18337,6917.804,95.436,540.625,538.7130000000002,0.0
52106.0,STARLINK-3670,PAYLOAD,2022-07-08 22:00:01,15.08855172,0.0001436,53.2173,343.5857,68.9469,133.3026,0.0012131,0.00019079,0.0,0 STARLINK-3670,1 52106U 22029U   22189.91668981  .00019079  00000-0  12131-2 0  9995,2 52106  53.2173 343.5857 0001436  68.9469 133.3026 15.08855172  1302,6917.834,95.437,540.692,538.706,0.0
52106.0,STARLINK-3670,PAYLOAD,2022-07-09 14:00:01,15.08831311,0.000152,53.2175,340.592,77.0505,148.3413,-0.0047448,-0.00074998,0.0,0 STARLINK-3670,1 52106U 22029U   22190.58334491 -.00074998  00000-0 -47448-2 0  9998,2 52106  53.2175 340.5920 0001520  77.0505 148.3413 15.08831311 18480,6917.906999999997,95.438,540.823,538.72,0.0
52106.0,STARLINK-3670,PAYLOAD,2022-07-09 20:00:01,15.08760356,0.0001591,53.2174,339.4707,71.0512,73.0148,0.0030905,0.00049133,0.0,0 STARLINK-3670,1 52106U 22029U   22190.83334491  .00049133  00000-0  30905-2 0  9997,2 52106  53.2174 339.4707 0001591  71.0512  73.0148 15.08760356  1301,6918.124,95.443,541.09,538.888,0.0
52106.0,STARLINK-3670,PAYLOAD,2022-07-10 06:00:00,15.08759164,0.0001453999999999,53.2175,337.5982,77.6226,170.8597,0.0055633,0.00089176,0.0,0 STARLINK-3670,1 52106U 22029U   22191.25001157  .00089176  00000-0  55633-2 0  9990,2 52106  53.2175 337.5982 0001454  77.6226 170.8597 15.08759164 18585,6918.127,95.443,540.998,538.987,0.0
